[{"OBJECT_NAME":"ONEWEB-0569","OBJECT_ID":"2023-004J","EPOCH":"2026-03-09T17:58:10.125120","MEAN_MOTION":13.13470288,"ECCENTRICITY":0.00025187,"INCLINATION":87.9046,"RA_OF_ASC_NODE":339.9936,"ARG_OF_PERICENTER":93.2896,"MEAN_ANOMALY":266.8521,"EPHEMERIS_TYPE":0,"CLASSIFICATION_TYPE":"U","NORAD_CAT_ID":55148,"ELEMENT_SET_NO":999,"REV_AT_EPOCH":15712,"BSTAR":0.00062117942,"MEAN_MOTION_DOT":2.4e-6,"MEAN_MOTION_DDOT":0},{"OBJECT_NAME":"SL-14 DEB","OBJECT_ID":"1991-056Y","EPOCH":"2026-03-09T12:40:05.556576","MEAN_MOTION":13.15664701,"ECCENTRICITY":0.0023415,"INCLINATION":82.6266,"RA_OF_ASC_NODE":230.5038,"ARG_OF_PERICENTER":64.2715,"MEAN_ANOMALY":296.082,"EPHEMERIS_TYPE":0,"CLASSIFICATION_TYPE":"U","NORAD_CAT_ID":45286,"ELEMENT_SET_NO":999,"REV_AT_EPOCH":29068,"BSTAR":0.0007556411,"MEAN_MOTION_DOT":2.98e-6,"MEAN_MOTION_DDOT":0}]
